[{"OBJECT_NAME":"STARLINK-5872","OBJECT_ID":"2023-094Q","EPOCH":"2026-03-09T22:00:01.999584","MEAN_MOTION":15.11376105,"ECCENTRICITY":0.00015753,"INCLINATION":43.0004,"RA_OF_ASC_NODE":28.4509,"ARG_OF_PERICENTER":248.1924,"MEAN_ANOMALY":38.1454,"EPHEMERIS_TYPE":0,"CLASSIFICATION_TYPE":"U","NORAD_CAT_ID":57232,"ELEMENT_SET_NO":999,"REV_AT_EPOCH":537,"BSTAR":0.0043979338,"MEAN_MOTION_DOT":0.00076111,"MEAN_MOTION_DDOT":0},{"OBJECT_NAME":"CZ-4B R\/B","OBJECT_ID":"2006-046C","EPOCH":"2026-03-09T16:12:15.627168","MEAN_MOTION":15.16904341,"ECCENTRICITY":0.003169,"INCLINATION":97.5596,"RA_OF_ASC_NODE":113.5843,"ARG_OF_PERICENTER":267.3889,"MEAN_ANOMALY":92.3716,"EPHEMERIS_TYPE":0,"CLASSIFICATION_TYPE":"U","NORAD_CAT_ID":29507,"ELEMENT_SET_NO":999,"REV_AT_EPOCH":6004,"BSTAR":0.0003074379,"MEAN_MOTION_DOT":6.066e-5,"MEAN_MOTION_DDOT":0}]
